CCSDS_OMM_VERS,COMMENT,CREATION_DATE,ORIGINATOR,OBJECT_NAME,OBJECT_ID,CENTER_NAME,REF_FRAME,TIME_SYSTEM,MEAN_ELEMENT_THEORY,EPOCH,MEAN_MOTION,ECCENTRICITY,INCLINATION,RA_OF_ASC_NODE,ARG_OF_PERICENTER,MEAN_ANOMALY,EPHEMERIS_TYPE,CLASSIFICATION_TYPE,NORAD_CAT_ID,ELEMENT_SET_NO,REV_AT_EPOCH,BSTAR,MEAN_MOTION_DOT,MEAN_MOTION_DDOT,SEMIMAJOR_AXIS,PERIOD,APOAPSIS,PERIAPSIS,OBJECT_TYPE,RCS_SIZE,COUNTRY_CODE,LAUNCH_DATE,SITE,DECAY_DATE,FILE,GP_ID,TLE_LINE0,TLE_LINE1,TLE_LINE2
2,GENERATED VIA SPACE-TRACK.ORG API,2021-09-15T03:28:10,18 SPCS,STARLINK-1098,2020-001D,EARTH,TEME,UTC,SGP4,2021-09-14T14:38:02.508864,15.06391773,0.0002161,53.0554,135.7691,73.1624,286.9602,0,U,44917,999,9310,7.6874e-05,8.63e-06,0,6925.374,95.593,548.735,545.742,PAYLOAD,LARGE,US,2020-01-07,AFETR,,3115650,184720666,0 STARLINK-1098,1 44917U 20001D   21257.60975126  .00000863  00000-0  76874-4 0  9994,2 44917  53.0554 135.7691 0002161  73.1624 286.9602 15.06391773 93102
2,GENERATED VIA SPACE-TRACK.ORG API,2021-09-14T22:46:11,18 SPCS,STARLINK-1098,2020-001D,EARTH,TEME,UTC,SGP4,2021-09-14T14:38:02.508864,15.06391773,0.0002161,53.0554,135.7691,73.1624,286.9602,0,U,44917,999,9310,7.6874e-05,8.63e-06,0,6925.374,95.593,548.735,545.742,PAYLOAD,LARGE,US,2020-01-07,AFETR,,3115609,184701180,0 STARLINK-1098,1 44917U 20001D   21257.60975126  .00000863  00000-0  76874-4 0  9994,2 44917  53.0554 135.7691 0002161  73.1624 286.9602 15.06391773 93102
2,GENERATED VIA SPACE-TRACK.ORG API,2021-09-15T18:03:55,18 SPCS,STARLINK-1098,2020-001D,EARTH,TEME,UTC,SGP4,2021-09-15T01:46:48.957600,15.06394886,0.0002179,53.0554,133.6842,75.5709,284.5522,0,U,44917,999,9317,9.8153e-05,1.18e-05,0,6925.364,95.592,548.738,545.72,PAYLOAD,LARGE,US,2020-01-07,AFETR,,3116289,184756253,0 STARLINK-1098,1 44917U 20001D   21258.07417775  .00001180  00000-0  98153-4 0  9994,2 44917  53.0554 133.6842 0002179  75.5709 284.5522 15.06394886 93176
2,GENERATED VIA SPACE-TRACK.ORG API,2021-09-15T22:56:11,18 SPCS,STARLINK-1098,2020-001D,EARTH,TEME,UTC,SGP4,2021-09-15T19:17:45.555936,15.06391889,0.0002222,53.0554,130.4079,77.3909,282.7328,0,U,44917,999,9328,2.5446e-05,9.7e-07,0,6925.373,95.593,548.777,545.7,PAYLOAD,LARGE,US,2020-01-07,AFETR,,3116448,184763437,0 STARLINK-1098,1 44917U 20001D   21258.80399949  .00000097  00000-0  25446-4 0  9998,2 44917  53.0554 130.4079 0002222  77.3909 282.7328 15.06391889 93280
2,GENERATED VIA SPACE-TRACK.ORG API,2021-09-16T03:21:31,18 SPCS,STARLINK-1098,2020-001D,EARTH,TEME,UTC,SGP4,2021-09-15T22:28:50.793600,15.06386119,0.0002175,53.0555,129.812,76.9543,283.1688,0,U,44917,999,9330,-2.6469e-05,-6.76e-06,0,6925.391,95.593,548.762,545.75,PAYLOAD,LARGE,US,2020-01-07,AFETR,,3116597,184786317,0 STARLINK-1098,1 44917U 20001D   21258.93669900 -.00000676  00000-0 -26469-4 0  9990,2 44917  53.0555 129.8120 0002175  76.9543 283.1688 15.06386119 93303
2,GENERATED VIA SPACE-TRACK.ORG API,2021-09-16T07:06:11,18 SPCS,STARLINK-1098,2020-001D,EARTH,TEME,UTC,SGP4,2021-09-15T22:28:50.793600,15.06386119,0.0002175,53.0555,129.812,76.9543,283.1688,0,U,44917,999,9330,-2.6469e-05,-6.76e-06,0,6925.391,95.593,548.762,545.75,PAYLOAD,LARGE,US,2020-01-07,AFETR,,3116772,184794114,0 STARLINK-1098,1 44917U 20001D   21258.93669900 -.00000676  00000-0 -26469-4 0  9990,2 44917  53.0555 129.8120 0002175  76.9543 283.1688 15.06386119 93303
2,GENERATED VIA SPACE-TRACK.ORG API,2021-09-16T19:09:29,18 SPCS,STARLINK-1098,2020-001D,EARTH,TEME,UTC,SGP4,2021-09-16T08:02:05.282304,15.06385873,0.0002183,53.0555,128.0248,76.9972,283.1261,0,U,44917,999,9336,-3.9696e-05,-8.73e-06,0,6925.392,95.593,548.769,545.745,PAYLOAD,LARGE,US,2020-01-07,AFETR,,3117121,184820490,0 STARLINK-1098,1 44917U 20001D   21259.33478336 -.00000873  00000-0 -39696-4 0  9991,2 44917  53.0555 128.0248 0002183  76.9972 283.1261 15.06385873 93369
2,GENERATED VIA SPACE-TRACK.ORG API,2021-09-17T06:56:11,18 SPCS,STARLINK-1098,2020-001D,EARTH,TEME,UTC,SGP4,2021-09-16T23:57:29.158560,15.06389111,0.0002187,53.0554,125.0464,77.945,282.1784,0,U,44917,999,9346,-4.5314e-05,-9.56e-06,0,6925.382,95.593,548.762,545.732,PAYLOAD,LARGE,US,2020-01-07,AFETR,,3117571,184857014,0 STARLINK-1098,1 44917U 20001D   21259.99825415 -.00000956  00000-0 -45314-4 0  9993,2 44917  53.0554 125.0464 0002187  77.9450 282.1784 15.06389111 93460
2,GENERATED VIA SPACE-TRACK.ORG API,2021-09-17T17:25:16,18 SPCS,STARLINK-1098,2020-001D,EARTH,TEME,UTC,SGP4,2021-09-17T07:55:11.142048,15.06389247,0.0002189,53.0555,123.5571,78.2597,281.8637,0,U,44917,999,9351,-4.1643e-05,-9.02e-06,0,6925.382,95.593,548.762,545.731,PAYLOAD,LARGE,US,2020-01-07,AFETR,,3117657,184878439,0 STARLINK-1098,1 44917U 20001D   21260.32999007 -.00000902  00000-0 -41643-4 0  9993,2 44917  53.0555 123.5571 0002189  78.2597 281.8637 15.06389247 93510
2,GENERATED VIA SPACE-TRACK.ORG API,2021-09-18T03:05:26,18 SPCS,STARLINK-1098,2020-001D,EARTH,TEME,UTC,SGP4,2021-09-17T14:17:20.793120,15.06381888,0.0002118,53.0553,122.3662,80.2732,279.8496,0,U,44917,999,9355,5.9697e-05,6.07e-06,0,6925.404,95.593,548.736,545.802,PAYLOAD,LARGE,US,2020-01-07,AFETR,,3118116,184910624,0 STARLINK-1098,1 44917U 20001D   21260.59537955  .00000607  00000-0  59697-4 0  9990,2 44917  53.0553 122.3662 0002118  80.2732 279.8496 15.06381888 93559
2,GENERATED VIA SPACE-TRACK.ORG API,2021-09-18T17:53:53,18 SPCS,STARLINK-1098,2020-001D,EARTH,TEME,UTC,SGP4,2021-09-18T07:48:17.062272,15.06386768,0.0002134,53.0553,119.09,81.6546,278.4684,0,U,44917,999,9366,7.439e-05,8.26e-06,0,6925.389,95.593,548.732,545.776,PAYLOAD,LARGE,US,2020-01-07,AFETR,,3118594,184945476,0 STARLINK-1098,1 44917U 20001D   21261.32519748  .00000826  00000-0  74390-4 0  9992,2 44917  53.0553 119.0900 0002134  81.6546 278.4684 15.06386768 93661
2,GENERATED VIA SPACE-TRACK.ORG API,2021-09-18T14:56:11,18 SPCS,STARLINK-1098,2020-001D,EARTH,TEME,UTC,SGP4,2021-09-18T07:48:17.062272,15.06386768,0.0002134,53.0553,119.09,81.6546,278.4684,0,U,44917,999,9366,7.439e-05,8.26e-06,0,6925.389,95.593,548.732,545.776,PAYLOAD,LARGE,US,2020-01-07,AFETR,,3118551,184924060,0 STARLINK-1098,1 44917U 20001D   21261.32519748  .00000826  00000-0  74390-4 0  9992,2 44917  53.0553 119.0900 0002134  81.6546 278.4684 15.06386768 93661
2,GENERATED VIA SPACE-TRACK.ORG API,2021-09-19T04:47:35,18 SPCS,STARLINK-1098,2020-001D,EARTH,TEME,UTC,SGP4,2021-09-18T14:10:26.665824,15.06387629,0.0002205,53.055,117.8981,82.6677,277.4563,0,U,44917,999,9370,6.6029e-05,7.02e-06,0,6925.386,95.593,548.779,545.724,PAYLOAD,LARGE,US,2020-01-07,AFETR,,3118781,184971082,0 STARLINK-1098,1 44917U 20001D   21261.59058641  .00000702  00000-0  66029-4 0  9994,2 44917  53.0550 117.8981 0002205  82.6677 277.4563 15.06387629 93705
2,GENERATED VIA SPACE-TRACK.ORG API,2021-09-19T17:21:12,18 SPCS,STARLINK-1098,2020-001D,EARTH,TEME,UTC,SGP4,2021-09-19T14:03:32.268096,15.06393027,0.0002248,53.0554,113.4311,83.3842,276.7403,0,U,44917,999,9385,6.2266e-05,6.46e-06,0,6925.37,95.593,548.792,545.678,PAYLOAD,LARGE,US,2020-01-07,AFETR,,3120015,185023265,0 STARLINK-1098,1 44917U 20001D   21262.58579014  .00000646  00000-0  62266-4 0  9992,2 44917  53.0554 113.4311 0002248  83.3842 276.7403 15.06393027 93857
2,GENERATED VIA SPACE-TRACK.ORG API,2021-09-19T22:56:11,18 SPCS,STARLINK-1098,2020-001D,EARTH,TEME,UTC,SGP4,2021-09-19T20:25:41.685888,15.06394605,0.0002249,53.0554,112.2396,84.0008,276.1237,0,U,44917,999,9389,7.072e-05,7.72e-06,0,6925.365,95.592,548.788,545.673,PAYLOAD,LARGE,US,2020-01-07,AFETR,,3120242,185032125,0 STARLINK-1098,1 44917U 20001D   21262.85117692  .00000772  00000-0  70720-4 0  9996,2 44917  53.0554 112.2396 0002249  84.0008 276.1237 15.06394605 93896
2,GENERATED VIA SPACE-TRACK.ORG API,2021-09-20T17:37:39,18 SPCS,STARLINK-1098,2020-001D,EARTH,TEME,UTC,SGP4,2021-09-20T12:21:05.287392,15.06397617,0.0002254,53.0555,109.261,84.7372,275.3874,0,U,44917,999,9399,6.0223e-05,6.15e-06,0,6925.356,95.592,548.782,545.66,PAYLOAD,LARGE,US,2020-01-07,AFETR,,3121163,185095096,0 STARLINK-1098,1 44917U 20001D   21263.51464453  .00000615  00000-0  60223-4 0  9993,2 44917  53.0555 109.2610 0002254  84.7372 275.3874 15.06397617 93994
2,GENERATED VIA SPACE-TRACK.ORG API,2021-09-21T02:43:14,18 SPCS,STARLINK-1098,2020-001D,EARTH,TEME,UTC,SGP4,2021-09-20T20:18:47.034144,15.06399063,0.0002261,53.0555,107.7716,85.961,274.1637,0,U,44917,999,9404,5.6381e-05,5.58e-06,0,6925.351,95.592,548.782,545.651,PAYLOAD,LARGE,US,2020-01-07,AFETR,,3121356,185121280,0 STARLINK-1098,1 44917U 20001D   21263.84637771  .00000558  00000-0  56381-4 0  9990,2 44917  53.0555 107.7716 0002261  85.9610 274.1637 15.06399063 94048
2,GENERATED VIA SPACE-TRACK.ORG API,2021-09-21T19:20:43,18 SPCS,STARLINK-1098,2020-001D,EARTH,TEME,UTC,SGP4,2021-09-20T23:29:51.718848,15.06399619,0.0002264,53.0555,107.1759,85.9768,274.148,0,U,44917,999,9406,5.9375e-05,6.03e-06,0,6925.35,95.592,548.783,545.647,PAYLOAD,LARGE,US,2020-01-07,AFETR,,3121847,185156300,0 STARLINK-1098,1 44917U 20001D   21263.97907082  .00000603  00000-0  59375-4 0  9996,2 44917  53.0555 107.1759 0002264  85.9768 274.1480 15.06399619 94061
2,GENERATED VIA SPACE-TRACK.ORG API,2021-09-21T06:56:12,18 SPCS,STARLINK-1098,2020-001D,EARTH,TEME,UTC,SGP4,2021-09-20T23:29:51.718848,15.06399619,0.0002264,53.0555,107.1759,85.9768,274.148,0,U,44917,999,9406,5.9375e-05,6.03e-06,0,6925.35,95.592,548.783,545.647,PAYLOAD,LARGE,US,2020-01-07,AFETR,,3121533,185129270,0 STARLINK-1098,1 44917U 20001D   21263.97907082  .00000603  00000-0  59375-4 0  9996,2 44917  53.0555 107.1759 0002264  85.9768 274.1480 15.06399619 94061
2,GENERATED VIA SPACE-TRACK.ORG API,2021-09-22T04:42:10,18 SPCS,STARLINK-1098,2020-001D,EARTH,TEME,UTC,SGP4,2021-09-21T15:25:15.171744,15.06402195,0.0002268,53.0555,104.1975,87.0247,273.1002,0,U,44917,999,9416,5.2644e-05,5.02e-06,0,6925.342,95.592,548.777,545.636,PAYLOAD,LARGE,US,2020-01-07,AFETR,,3122258,185186799,0 STARLINK-1098,1 44917U 20001D   21264.64253671  .00000502  00000-0  52644-4 0  9999,2 44917  53.0555 104.1975 0002268  87.0247 273.1002 15.06402195 94161
